OSCAR 7 (AO-7)          
1 07530U 74089B   26197.02158684 -.00000037  00000+0  58784-4 0  9998
2 07530 101.9906 210.5687 0012657  76.8170 307.7324 12.53698596364139
PHASE 3B (AO-10)        
1 14129U 83058B   26194.10401075 -.00000187  00000+0  00000+0 0  9996
2 14129  25.9345 215.2934 6002223 122.7887 309.2966  2.05872336296023
UOSAT 2 (UO-11)         
1 14781U 84021B   26196.88103810  .00000507  00000+0  57146-4 0  9997
2 14781  97.8076 162.1394 0009246  89.5955 270.6323 14.90849797261402
LUSAT (LO-19)           
1 20442U 90005G   26196.99636383  .00000033  00000+0  28309-4 0  9998
2 20442  98.8847 219.5949 0012560 119.2516 240.9925 14.34130880906521
EYESAT A (AO-27)        
1 22825U 93061C   26197.15803350  .00000039  00000+0  31913-4 0  9990
2 22825  98.6867 264.5590 0008709  23.1959 336.9615 14.30949207711145
ITAMSAT (IO-26)         
1 22826U 93061D   26197.12879793  .00000040  00000+0  31862-4 0  9997
2 22826  98.6815 264.4502 0008906   6.6697 353.4603 14.31376814711459
RADIO ROSTO (RS15)      
1 23439U 94085A   26197.20600163 -.00000039  00000+0  92423-4 0  9996
2 23439  64.8149 256.2858 0156952 358.5255   1.5187 11.27583520299176
JAS-2 (FO-29)           
1 24278U 96046B   26197.14492378 -.00000004  00000+0  31662-4 0  9997
2 24278  98.5219  42.0475 0350320  21.4805 340.0632 13.53275760477087
TECHSAT 1B (GO-32)      
1 25397U 98043D   26196.93420811  .00000003  00000+0  21470-4 0  9992
2 25397  99.0086 190.4201 0002197 113.5065 246.6344 14.24433441455426
ISS (ZARYA)             
1 25544U 98067A   26196.76640667  .00004078  00000+0  82095-4 0  9992
2 25544  51.6311 158.6576 0006718 300.0875  59.9447 15.49019038576187
PCSAT (NO-44)           
1 26931U 01043C   26197.07520821  .00000013  00000+0  35829-4 0  9993
2 26931  67.0495 169.5533 0005919 266.6744  93.3681 14.31965199294581
SAUDISAT 1C (SO-50)     
1 27607U 02058C   26197.15063769  .00000350  00000+0  59360-4 0  9993
2 27607  64.5518  39.3689 0074499 257.0898 102.1880 14.83099305268753
CUTE-1 (CO-55)          
1 27844U 03031E   26196.97918346  .00000131  00000+0  75469-4 0  9992
2 27844  98.6744 205.1765 0010841 100.6537 259.5863 14.24351837195772
CUBESAT XI-IV (CO-57)   
1 27848U 03031J   26196.98211363  .00000105  00000+0  65012-4 0  9996
2 27848  98.6774 204.8688 0010566 117.3488 242.8767 14.23634777195474
MOZHAETS 4 (RS22)       
1 27939U 03042A   26197.21760557 -.00000025  00000+0  43981-5 0  9994
2 27939  98.3468  22.3978 0011297 170.0410 300.8743 14.73513468219823
CUBESAT XI-V            
1 28895U 05043F   26196.93934947  .00000649  00000+0  10996-3 0  9992
2 28895  98.3016 353.1708 0015281 113.0525 247.2294 14.72703396105987
CUTE-1.7+APD II (CO-65) 
1 32785U 08021C   26197.21519561  .00002492  00000+0  15875-3 0  9996
2 32785  97.8296 179.2460 0006941 295.5098  64.5412 15.09706582989578
SEEDS II (CO-66)        
1 32791U 08021J   26196.98191949  .00009999  00000+0  30950-3 0  9992
2 32791  97.7522 196.2767 0003155 154.4118 205.7280 15.33682976991702
YUBILEINY (RS30)        
1 32953U 08025A   26197.15104803  .00000043  00000+0  23699-3 0  9992
2 32953  82.5060 337.4217 0018631 246.7923 113.1195 12.43180830823299
KKS-1 (KISEKI)          
1 33499U 09002H   26197.13145115  .00000555  00000+0  74836-4 0  9991
2 33499  98.1173 120.0323 0007512 185.7130 174.3998 14.83190279940480
SWISSCUBE               
1 35932U 09051B   26197.17712106  .00000443  00000+0  97133-4 0  9994
2 35932  98.4006 105.5678 0007888 116.4429 243.7582 14.62531689893399
BEESAT-1                
1 35933U 09051C   26196.31185738  .00000377  00000+0  85523-4 0  9991
2 35933  98.3935 104.2639 0006132 129.5089 230.6654 14.61761931893299
ITUPSAT1                
1 35935U 09051E   26196.19038705  .00000349  00000+0  82054-4 0  9995
2 35935  98.4018 103.3025 0008086 143.1681 217.0076 14.60478742892822
XIWANG-1 (HOPE-1)       
1 36122U 09072B   26197.12354407  .00000012  00000+0  14858-3 0  9994
2 36122 100.4039 150.4957 0007539 162.6984 197.4387 13.16440679796815
O/OREOS (USA 219)       
1 37224U 10062C   26196.92499132  .00001000  00000+0  99967-4 0  9994
2 37224  71.9698  15.2352 0013999   3.6363 356.4907 14.93853123120938
JUGNU                   
1 37839U 11058B   26197.17767124  .00000337  00000+0  36708-4 0  9995
2 37839  19.9596 132.2939 0018592  37.2294  97.4128 14.13783599763133
SRMSAT                  
1 37841U 11058D   26197.19967284  .00000332  00000+0  36066-4 0  9991
2 37841  19.9709 243.8664 0011730 162.2183 240.1222 14.11581214761924
STRAND-1                
1 39090U 13009E   26196.74002715  .00000123  00000+0  55624-4 0  9995
2 39090  98.3935  16.2735 0009437 139.6200 220.5689 14.37179078701162
ZACUBE-1 (TSHEPISOSAT)  
1 39417U 13066B   26196.93443538  .00001227  00000+0  98253-4 0  9995
2 39417  97.8008 159.4128 0044057 152.8424 207.5118 15.01330710685042
GOMX-1                  
1 39430U 13066Q   26197.19255281  .00000594  00000+0  96202-4 0  9993
2 39430  97.6464  35.8247 0128167 344.9990  14.7429 14.69543658674172
